{
"type": "FeatureCollection",
"name": "line_fortress-fabdem",
"crs": { "type": "name", "properties": { "name": "urn:ogc:def:crs:ESRI::102008" } },
"features": [
{ "type": "Feature", "properties": { "FID": 0 }, "geometry": { "type": "LineString", "coordinates": [ [ -1274052.501621228409931, 1402444.515042833751068 ], [ -1281983.6768642377574, 1404084.440571639919654 ], [ -1280218.161685689119622, 1412661.074192397994921 ], [ -1272236.95944617013447, 1411016.036082905950025 ], [ -1274052.501621228409931, 1402444.515042833751068 ] ] } }
]
}
